#dP2023  3  3  0  0  0.00000000      96 __u+U ITR14 FIT  IAC
## 2251 432000.00000000   900.00000000 60006 0.0000000000000
+  117   C06C07C08C09C10C11C12C13C14C16C19C20C21C22C23C24C25
+        C26C27C28C29C30C32C33C34C35C36C37C38C39C40C41C42C43
+        C44C45C46E02E03E04E05E07E08E09E10E11E12E14E15E18E19
+        E21E24E25E26E27E30E31E33E34E36G01G02G03G04G05G06G07
+        G08G09G10G11G12G13G14G15G16G17G18G19G20G21G22G23G24
+        G25G26G27G28G29G30G32J02J03J04R01R02R03R04R05R07R08
+        R09R11R12R13R14R15R16R17R18R19R20R21R22R24R25  0  0
++        12 12 13 12 11 11 11 12 11 12  9 10  9  9 10  9 10
++         9  9  9  9  9 10 10  9 12 10 10 11 11 11 10  9  9
++         9  9 10  5  5  4  5  6  6  4  4  4  5  6  5  4  5
++         5  5  5  5  4  5  5  5  4  4  4  4  4  4  4  4  4
++         4  4  4  4  4  5  4  5  4  4  4  4  4  4  4  4  4
++         4  4  4  4  4  4  4  9  9  9  8  6  6  6  6  6  6
++         6  6  6  8  6  6  6  6  6  8  8  6  6  6  8  0  0
%c M  cc GPS ccc cccc cccc cccc cccc ccccc ccccc ccccc ccccc
%c cc cc ccc ccc cccc cccc cccc cccc ccccc ccccc ccccc ccccc
%f  0.0000000  0.000000000  0.00000000000  0.000000000000000
%f  0.0000000  0.000000000  0.00000000000  0.000000000000000
%i    0    0    0    0      0      0      0      0         0
%i    0    0    0    0      0      0      0      0         0
/* INFORMATION & ANALYSIS CENTER (IAC)            RAPID DATA
/* S/V CLOCKS ARE ALIGNED TO GNSS TIME                      
/* G:C1WC2W R:C1PC2P E:C1XC5X C:C2IC6I J:C1CC2S             
/* PCV:IGS20_2247 OL/AL:FES2004  NONE     YN ORB:CoN CLK:CoN
*  2023 03 03  3 15  0.00000000
PC06 -19220.246471  31505.820773  20157.216081   -193.940948
PC07  -5612.501505  38500.264961  16483.286421     35.798530
PC08  -4193.139637  20525.295296 -36567.062073 999999.999999
PC09 -10826.986947  30276.822748  27390.412083    892.804134
PC10     41.490074  41059.562676  10972.432791     -0.478064
PC11   2611.700900 -20188.166675  19149.527603    684.400937
PC12  17406.458357 -21399.475166   4259.904250    483.630118
PC13   2049.880413  23572.668672 -34691.099780    220.501242
PC14  -6565.193445 -27026.692035   1890.332676    543.318992
PC16 -20862.627961  31330.834778  18902.737416    148.770717
PC19  12319.078046  23911.163943   7504.903792   -894.964553
PC20   1073.028285  26303.372153  -9286.701165    698.561609
PC21  11762.773009 -12880.486503  21797.901597   -909.219966
PC22  16997.665282   7657.654829  20778.134564   -605.468789
PC23 -27115.048867  -6609.188568    140.139359   -883.179351
PC24   4436.417169 -15726.319999 -22640.473288   -343.073557
PC25 -17598.870454 -15249.378999 -15406.157832     81.086313
PC26  20976.590464  -7660.521672 -16730.418366    -86.395957
PC27 -21278.097158  17555.453072   4138.952905    104.802931
PC28 -20851.303930   3107.196455  18287.358372     76.588103
PC29   7986.709464  14495.841517 -22473.063190     88.316446
PC30  -9586.000972  23182.884193 -12201.962099      0.998693
PC32 -11672.163325  12942.241818 -21776.891886   -608.670910
PC33 -12394.327781 -23881.232016  -7362.591730   -871.211518
PC34   8573.921746 -23065.429440  13176.097270    118.019726
PC35  20395.934994  -2762.659325 -18875.549160    671.269221
PC36  16579.563537  15851.888859  15902.210073   -589.757489
PC37 -22184.439680   6225.385358  15765.918868   -809.799029
PC38 -13983.745321  19014.921862 -34905.125816 999999.999999
PC39 -24737.970353  31748.893134  12206.879930     -2.017767
PC40  -9594.368636  35977.279632  19979.452365    -16.517751
PC41 -17042.289747  -8272.733733 -20431.696486   -676.500333
PC42   -103.523245 -25857.114869  10513.550739   -807.626677
PC43  -7284.919987 -15226.818930  22217.068589      9.854305
PC44  20738.426977 -18193.316387  -4348.147766     32.206468
PC45  27157.225387   6338.792312   -569.401716    -67.278334
PC46  -2521.083204  16043.677884  22683.246743    -37.160307
PE02 -23875.802585 -14033.414281  10469.809338     24.025318
PE03 -16124.710621  -5499.695509 -24205.676005   -655.342477
PE04  17371.291162 -15823.094676  18011.152575    -69.981416
PE05  -5345.580478 -24123.775240 -16294.489177    -90.171021
PE07  -8473.399828  28342.276591  -1136.206461    -26.972694
PE08 -17266.320534  15725.141968 -18189.155547    -44.843056
PE09   8537.875135 -28304.394255   1341.982669   -855.187514
PE10  21621.243074 -14961.184842  13596.685234   -516.279033
PE11  11738.216770 -17237.305814  21009.103136   1097.402702
PE12  27266.197587 -10523.482895   4775.970979   -442.506992
PE14  -1677.828184  30025.689540 -11436.748152 999999.999999
PE15 -27362.499226  10361.462067  -4430.982529     -4.797437
PE18   3889.306115 -22683.324250   6156.903433   -328.309700
PE19  15000.223567   8485.532449  24074.340445  -3103.083606
PE21  16432.868778  23555.200983   7136.846972   -515.271575
PE24   1846.559474 -19747.724582 -22001.766759  -1143.865327
PE25 -16204.390141 -23630.995712  -7451.560362   -600.519418
PE26  10260.317758  13597.284716 -24200.918991     34.164785
PE27   -974.476731  20135.086437  21664.742454   -525.355744
PE30 -18082.548681   4242.580140  23035.594808  -1286.003736
PE31  17609.549929  -4907.161668 -23279.133815   -517.494562
PE33  25866.138567   2450.092537 -14189.597849   -450.471511
PE34 -25941.907853  -2305.383750  14065.660222    -32.889322
PE36  -9333.215053 -13782.555239  24480.263057    -20.440649
PG01   4459.957382  14119.943338 -22382.315579    206.731179
PG02  -8300.253068 -13371.762646  21994.651313   -617.130353
PG03  11152.640857  22259.926947  -9538.954563   -355.932862
PG04   1904.608570  22539.847669  13839.536206    -15.750578
PG05   2456.801902 -17229.465818  19859.043548   -117.984680
PG06  26063.439768  -5374.652407    340.915318    577.956412
PG07  18636.385816   8903.375593  17400.255013    230.759143
PG08  -5861.004821  25557.361527  -2617.354274   -111.092122
PG09  10459.624967  13917.989947  19971.899609   -208.109539
PG10 -20295.794971  -6776.383811 -15758.270442    -26.968070
PG11  19631.839947 -12174.852050  13090.360869   -119.135589
PG12  -7920.597061 -22949.877755 -11166.053714   -346.851530
PG13  13294.414720 -22681.846907   2751.619540    484.552748
PG14  20693.124782   9341.072931 -13885.597464    -13.974110
PG15   2304.327654 -26148.444789  -3372.862484     18.157611
PG16  -6692.388687  14865.949372  20564.799073   -517.504038
PG17  15589.005225   -490.263918 -21085.032005    703.270046
PG18 -21424.961561  -6092.005214  14579.226167   -163.247515
PG19  17508.934019 -10457.580525 -17090.643945    284.884968
PG20  11831.077247 -10296.920782  21454.480174    447.388747
PG21  -4447.568724  15892.586869 -20031.647277    154.227212
PG22 -16828.894269  14378.774440 -14113.166321    437.742313
PG23 -20573.099284 -15777.394640  -6106.256678      8.625663
PG24   -543.270204 -16263.510500 -21295.276694    -96.059873
PG25 -16366.822574 -20964.205590  -2786.471442    424.558880
PG26 -16828.960982   4232.174980  20074.603348    241.835892
PG27 -12722.575474  21645.681079   7741.783654     89.786273
PG28 -26019.673997   4995.176774  -1847.345950     31.685366
PG29  -6548.135644 -17361.824696  18921.998049   -588.963698
PG30  25776.086409    261.402510   7043.138910   -528.402358
PG32 -16281.094355   3910.951315 -20401.467943   -412.255175
PJ02 -26471.140748  21406.273590  29909.721220     -1.070758
PJ03 -35541.447123  22068.964304   -812.063043      0.609795
PJ04 -19532.145101  27753.690850 -19829.457699     94.188731
PR01   5527.306930 -18785.978367  16345.503345     24.041266
PR02  -2778.458261 -25370.578931   -992.614525    -23.200217
PR03  -9628.834142 -16584.021750 -16802.905374     73.462872
PR04 -10698.829835   1131.162730 -23095.360090    177.884492
PR05  -6181.894415  18202.184001 -16737.730243    108.631093
PR07   9849.777525  15763.244402  17488.006902     50.986502
PR08  10821.722096  -1455.655148  23115.421351    -69.688274
PR09   8441.125066  14070.655813  19570.165754    107.031958
PR11  22828.312351   4467.098677 -10477.663008    -12.222901
PR12  10098.411189  -7202.146148 -22267.888417     25.381335
PR13  -6565.519891 -13595.211597 -20582.557486    -32.596440
PR14 -21494.436535 -12452.681919  -5758.288713     24.374070
PR15 -22431.013816  -3932.645793  11502.986304     90.718815
PR16 -10309.288218   6975.245033  22262.104928     11.916382
PR17 -11650.325361  -4165.821927  22321.070216    609.449351
PR18 -20915.291748   7855.174077  12270.604795     69.519709
PR19 -20471.488130  14941.782019  -2865.162315   -223.852281
PR20  -5940.595967  14517.578028 -20088.275451    -88.646022
PR21  12881.382896   2963.917313 -21810.838692   -377.415389
PR22  21560.876795  -7557.755802 -11336.777153     73.259046
PR24   4653.167855 -14830.395259  20241.236728    150.811433
PR25  11328.763163   5182.808458 -22250.378346     56.626657
EOF
